start=new Date('2022-12-29T00:00:00.000Z').valueOf();
sats=[{"TLE_LINE2":"2 52544  53.2181 332.0852 0002904  29.1576 330.9578 15.08838762 35225","TIME_SYSTEM":"UTC","MEAN_MOTION_DOT":"-0.00000033","RA_OF_ASC_NODE":"332.0852","ARG_OF_PERICENTER":"29.1576","CLASSIFICATION_TYPE":"U","BSTAR":"0.00001607800000","APOAPSIS":"541.758","MEAN_ANOMALY":"330.9578","CENTER_NAME":"EARTH","EPHEMERIS_TYPE":"0","SITE":"AFWTR","COUNTRY_CODE":"US","GP_ID":"221696807","EPOCH":"2022-12-28T21:25:19.689600","PERIAPSIS":"537.740","TLE_LINE1":"1 52544U 22051M   22362.89258900 -.00000033  00000-0  16078-4 0  9999","NORAD_CAT_ID":"52544","PERIOD":"95.438","OBJECT_TYPE":"PAYLOAD","OBJECT_NAME":"STARLINK-3944","RCS_SIZE":"LARGE","INCLINATION":"53.2181","MEAN_MOTION_DDOT":"0.0000000000000","REV_AT_EPOCH":"3522","DECAY_DATE":null,"MEAN_ELEMENT_THEORY":"SGP4","MEAN_MOTION":"15.08838762","REF_FRAME":"TEME","FILE":"3725038","SEMIMAJOR_AXIS":"6917.884","LAUNCH_DATE":"2022-05-13","ECCENTRICITY":"0.00029040","ELEMENT_SET_NO":"999","OBJECT_ID":"2022-051M"},{"TLE_LINE2":"2 52545  53.2161 331.3594 0002917  25.2171 334.8963 15.08857909 35158","TIME_SYSTEM":"UTC","MEAN_MOTION_DOT":"0.00004418","RA_OF_ASC_NODE":"331.3594","BSTAR":"0.00029536000000","CLASSIFICATION_TYPE":"U","ARG_OF_PERICENTER":"25.2171","APOAPSIS":"541.709","MEAN_ANOMALY":"334.8963","EPHEMERIS_TYPE":"0","SITE":"AFWTR","COUNTRY_CODE":"US","CENTER_NAME":"EARTH","GP_ID":"221664384","TLE_LINE1":"1 52545U 22051N   22361.94175984  .00004418  00000-0  29536-3 0  9997","EPOCH":"2022-12-27T22:36:08.050176","PERIAPSIS":"537.673","NORAD_CAT_ID":"52545","PERIOD":"95.436","OBJECT_NAME":"STARLINK-3939","OBJECT_TYPE":"PAYLOAD","RCS_SIZE":"LARGE","MEAN_MOTION_DDOT":"0.0000000000000","INCLINATION":"53.2161","MEAN_MOTION":"15.08857909","REV_AT_EPOCH":"3515","MEAN_ELEMENT_THEORY":"SGP4","DECAY_DATE":null,"SEMIMAJOR_AXIS":"6917.826","LAUNCH_DATE":"2022-05-13","ECCENTRICITY":"0.00029170","REF_FRAME":"TEME","FILE":"3724805","OBJECT_ID":"2022-051N","ELEMENT_SET_NO":"999"},{"PERIOD":"95.437","NORAD_CAT_ID":"52546","RCS_SIZE":"LARGE","OBJECT_NAME":"STARLINK-3948","OBJECT_TYPE":"PAYLOAD","MEAN_MOTION":"15.08851305","DECAY_DATE":null,"MEAN_ELEMENT_THEORY":"SGP4","REV_AT_EPOCH":"3528","MEAN_MOTION_DDOT":"0.0000000000000","INCLINATION":"53.2153","OBJECT_ID":"2022-051P","ELEMENT_SET_NO":"999","ECCENTRICITY":"0.00026180","LAUNCH_DATE":"2022-05-13","SEMIMAJOR_AXIS":"6917.846","FILE":"3724839","REF_FRAME":"TEME","MEAN_MOTION_DOT":"0.00001746","TIME_SYSTEM":"UTC","TLE_LINE2":"2 52546  53.2153 329.6348 0002618  32.7881 327.3274 15.08851305 35286","CLASSIFICATION_TYPE":"U","BSTAR":"0.00012778000000","ARG_OF_PERICENTER":"32.7881","RA_OF_ASC_NODE":"329.6348","SITE":"AFWTR","COUNTRY_CODE":"US","EPHEMERIS_TYPE":"0","CENTER_NAME":"EARTH","MEAN_ANOMALY":"327.3274","APOAPSIS":"541.522","TLE_LINE1":"1 52546U 22051P   22362.32543910  .00001746  00000-0  12778-3 0  9990","PERIAPSIS":"537.900","EPOCH":"2022-12-28T07:48:37.938240","GP_ID":"221668013"},{"PERIOD":"95.437","NORAD_CAT_ID":"52547","RCS_SIZE":"LARGE","OBJECT_TYPE":"PAYLOAD","OBJECT_NAME":"STARLINK-3869","DECAY_DATE":null,"MEAN_ELEMENT_THEORY":"SGP4","REV_AT_EPOCH":"3521","MEAN_MOTION":"15.08847093","MEAN_MOTION_DDOT":"0.0000000000000","INCLINATION":"53.2163","ELEMENT_SET_NO":"999","OBJECT_ID":"2022-051Q","FILE":"3724839","REF_FRAME":"TEME","ECCENTRICITY":"0.00024190","LAUNCH_DATE":"2022-05-13","SEMIMAJOR_AXIS":"6917.859","MEAN_MOTION_DOT":"0.00001814","TIME_SYSTEM":"UTC","TLE_LINE2":"2 52547  53.2163 334.4474 0002419  38.7586 321.3579 15.08847093 35213","ARG_OF_PERICENTER":"38.7586","BSTAR":"0.00013201000000","CLASSIFICATION_TYPE":"U","RA_OF_ASC_NODE":"334.4474","CENTER_NAME":"EARTH","COUNTRY_CODE":"US","SITE":"AFWTR","EPHEMERIS_TYPE":"0","MEAN_ANOMALY":"321.3579","APOAPSIS":"541.397","PERIAPSIS":"538.050","EPOCH":"2022-12-28T08:47:31.916832","TLE_LINE1":"1 52547U 22051Q   22362.36634163  .00001814  00000-0  13201-3 0  9994","GP_ID":"221668020"},{"TLE_LINE1":"1 52548U 22051R   22362.30975646  .00002367  00000-0  16677-3 0  9997","EPOCH":"2022-12-28T07:26:02.958144","PERIAPSIS":"537.600","GP_ID":"221667909","SITE":"AFWTR","COUNTRY_CODE":"US","EPHEMERIS_TYPE":"0","CENTER_NAME":"EARTH","MEAN_ANOMALY":"339.4113","APOAPSIS":"541.829","CLASSIFICATION_TYPE":"U","BSTAR":"0.00016677000000","ARG_OF_PERICENTER":"20.7002","RA_OF_ASC_NODE":"329.7023","MEAN_MOTION_DOT":"0.00002367","TIME_SYSTEM":"UTC","TLE_LINE2":"2 52548  53.2190 329.7023 0003056  20.7002 339.4113 15.08850075 35288","OBJECT_ID":"2022-051R","ELEMENT_SET_NO":"999","ECCENTRICITY":"0.00030560","SEMIMAJOR_AXIS":"6917.850","LAUNCH_DATE":"2022-05-13","FILE":"3724839","REF_FRAME":"TEME","MEAN_MOTION":"15.08850075","DECAY_DATE":null,"MEAN_ELEMENT_THEORY":"SGP4","REV_AT_EPOCH":"3528","MEAN_MOTION_DDOT":"0.0000000000000","INCLINATION":"53.2190","RCS_SIZE":"LARGE","OBJECT_NAME":"STARLINK-3931","OBJECT_TYPE":"PAYLOAD","PERIOD":"95.437","NORAD_CAT_ID":"52548"},{"MEAN_MOTION_DOT":"0.00001503","TLE_LINE2":"2 52549  53.2184 329.6137 0001805  56.7513 303.3652 15.08853751 35285","TIME_SYSTEM":"UTC","ARG_OF_PERICENTER":"56.7513","BSTAR":"0.00011248000000","CLASSIFICATION_TYPE":"U","RA_OF_ASC_NODE":"329.6137","CENTER_NAME":"EARTH","EPHEMERIS_TYPE":"0","COUNTRY_CODE":"US","SITE":"AFWTR","APOAPSIS":"540.952","MEAN_ANOMALY":"303.3652","EPOCH":"2022-12-28T07:52:33.087072","PERIAPSIS":"538.455","TLE_LINE1":"1 52549U 22051S   22362.32816073  .00001503  00000-0  11248-3 0  9998","GP_ID":"221667911","PERIOD":"95.437","NORAD_CAT_ID":"52549","RCS_SIZE":"LARGE","OBJECT_TYPE":"PAYLOAD","OBJECT_NAME":"STARLINK-3935","REV_AT_EPOCH":"3528","DECAY_DATE":null,"MEAN_ELEMENT_THEORY":"SGP4","MEAN_MOTION":"15.08853751","INCLINATION":"53.2184","MEAN_MOTION_DDOT":"0.0000000000000","ELEMENT_SET_NO":"999","OBJECT_ID":"2022-051S","REF_FRAME":"TEME","FILE":"3724839","SEMIMAJOR_AXIS":"6917.838","LAUNCH_DATE":"2022-05-13","ECCENTRICITY":"0.00018050"},{"PERIOD":"95.437","NORAD_CAT_ID":"52550","RCS_SIZE":"LARGE","OBJECT_TYPE":"PAYLOAD","OBJECT_NAME":"STARLINK-3965","REV_AT_EPOCH":"3528","DECAY_DATE":null,"MEAN_ELEMENT_THEORY":"SGP4","MEAN_MOTION":"15.08848798","MEAN_MOTION_DDOT":"0.0000000000000","INCLINATION":"53.2186","ELEMENT_SET_NO":"999","OBJECT_ID":"2022-051T","REF_FRAME":"TEME","FILE":"3724839","LAUNCH_DATE":"2022-05-13","SEMIMAJOR_AXIS":"6917.853","ECCENTRICITY":"0.00027100","MEAN_MOTION_DOT":"0.00001658","TLE_LINE2":"2 52550  53.2186 329.6681 0002710  24.5064 335.6057 15.08848798 35285","TIME_SYSTEM":"UTC","ARG_OF_PERICENTER":"24.5064","BSTAR":"0.00012224000000","CLASSIFICATION_TYPE":"U","RA_OF_ASC_NODE":"329.6681","CENTER_NAME":"EARTH","EPHEMERIS_TYPE":"0","SITE":"AFWTR","COUNTRY_CODE":"US","APOAPSIS":"541.593","MEAN_ANOMALY":"335.6057","PERIAPSIS":"537.844","EPOCH":"2022-12-28T07:36:39.369312","TLE_LINE1":"1 52550U 22051T   22362.31712233  .00001658  00000-0  12224-3 0  9998","GP_ID":"221667921"},{"RCS_SIZE":"LARGE","OBJECT_TYPE":"PAYLOAD","OBJECT_NAME":"STARLINK-3969","PERIOD":"95.437","NORAD_CAT_ID":"52551","ELEMENT_SET_NO":"999","OBJECT_ID":"2022-051U","FILE":"3724805","REF_FRAME":"TEME","ECCENTRICITY":"0.00020480","SEMIMAJOR_AXIS":"6917.849","LAUNCH_DATE":"2022-05-13","MEAN_ELEMENT_THEORY":"SGP4","DECAY_DATE":null,"REV_AT_EPOCH":"3521","MEAN_MOTION":"15.08850236","MEAN_MOTION_DDOT":"0.0000000000000","INCLINATION":"53.2141","ARG_OF_PERICENTER":"54.1543","CLASSIFICATION_TYPE":"U","BSTAR":"0.00012493000000","RA_OF_ASC_NODE":"329.6358","MEAN_MOTION_DOT":"0.00001701","TIME_SYSTEM":"UTC","TLE_LINE2":"2 52551  53.2141 329.6358 0002048  54.1543 305.9639 15.08850236 35212","PERIAPSIS":"538.297","EPOCH":"2022-12-28T07:47:15.552384","TLE_LINE1":"1 52551U 22051U   22362.32448556  .00001701  00000-0  12493-3 0  9991","GP_ID":"221664880","CENTER_NAME":"EARTH","SITE":"AFWTR","COUNTRY_CODE":"US","EPHEMERIS_TYPE":"0","MEAN_ANOMALY":"305.9639","APOAPSIS":"541.131"},{"MEAN_MOTION_DOT":"0.00002836","TLE_LINE2":"2 52552  53.2180 333.5887 0003013  28.9827 331.1332 15.08852019 35159","TIME_SYSTEM":"UTC","ARG_OF_PERICENTER":"28.9827","BSTAR":"0.00019614000000","CLASSIFICATION_TYPE":"U","RA_OF_ASC_NODE":"333.5887","CENTER_NAME":"EARTH","EPHEMERIS_TYPE":"0","COUNTRY_CODE":"US","SITE":"AFWTR","APOAPSIS":"541.793","MEAN_ANOMALY":"331.1332","EPOCH":"2022-12-27T10:40:45.374304","PERIAPSIS":"537.624","TLE_LINE1":"1 52552U 22051V   22361.44496961  .00002836  00000-0  19614-3 0  9999","GP_ID":"221628410","PERIOD":"95.437","NORAD_CAT_ID":"52552","RCS_SIZE":"LARGE","OBJECT_TYPE":"PAYLOAD","OBJECT_NAME":"STARLINK-3966","REV_AT_EPOCH":"3515","DECAY_DATE":null,"MEAN_ELEMENT_THEORY":"SGP4","MEAN_MOTION":"15.08852019","MEAN_MOTION_DDOT":"0.0000000000000","INCLINATION":"53.2180","ELEMENT_SET_NO":"999","OBJECT_ID":"2022-051V","REF_FRAME":"TEME","FILE":"3724252","LAUNCH_DATE":"2022-05-13","SEMIMAJOR_AXIS":"6917.844","ECCENTRICITY":"0.00030130"},{"OBJECT_ID":"2022-051W","ELEMENT_SET_NO":"999","SEMIMAJOR_AXIS":"6917.857","LAUNCH_DATE":"2022-05-13","ECCENTRICITY":"0.00029830","REF_FRAME":"TEME","FILE":"3724839","MEAN_MOTION":"15.08847587","REV_AT_EPOCH":"3528","DECAY_DATE":null,"MEAN_ELEMENT_THEORY":"SGP4","MEAN_MOTION_DDOT":"0.0000000000000","INCLINATION":"53.2195","RCS_SIZE":"LARGE","OBJECT_NAME":"STARLINK-3858","OBJECT_TYPE":"PAYLOAD","PERIOD":"95.437","NORAD_CAT_ID":"52553","TLE_LINE1":"1 52553U 22051W   22362.32079722  .00002166  00000-0  15414-3 0  9990","PERIAPSIS":"537.659","EPOCH":"2022-12-28T07:41:56.879808","GP_ID":"221667913","EPHEMERIS_TYPE":"0","COUNTRY_CODE":"US","SITE":"AFWTR","CENTER_NAME":"EARTH","APOAPSIS":"541.786","MEAN_ANOMALY":"335.3696","CLASSIFICATION_TYPE":"U","BSTAR":"0.00015414000000","ARG_OF_PERICENTER":"24.7438","RA_OF_ASC_NODE":"329.6521","MEAN_MOTION_DOT":"0.00002166","TLE_LINE2":"2 52553  53.2195 329.6521 0002983  24.7438 335.3696 15.08847587 35281","TIME_SYSTEM":"UTC"}];
